{"type": "FeatureCollection", "features": [ {"type": "Feature", "properties": {"norad_id": 31753, "name": "FENGYUN 1C DEB", "group": "fengyun-1c-debris", "lat": -12.001237965436536, "lon": 18.536209830046946, "alt_km": 944.806335458934, "timestamp": "2025-12-09T11:33:55.084034+00:00", "meta": {"OBJECT_NAME": "FENGYUN 1C DEB", "OBJECT_ID": "1999-025CFC", "EPOCH": "2025-12-09T01:44:48.307776", "MEAN_MOTION": 14.18628858, "ECCENTRICITY": 0.0158931, "INCLINATION": 98.6324, "RA_OF_ASC_NODE": 16.2873, "ARG_OF_PERICENTER": 184.2978, "MEAN_ANOMALY": 235.0431, "EPHEMERIS_TYPE": 0, "CLASSIFICATION_TYPE": "U", "NORAD_CAT_ID": 31753, "ELEMENT_SET_NO": 999, "REV_AT_EPOCH": 95967, "BSTAR": 0.00046992, "MEAN_MOTION_DOT": 1.061e-05, "MEAN_MOTION_DDOT": 0}, "tle": {"line1": "1 31753U 99025CFC 25343.07278134  .00001061  00000+0  46992-3 0  9993", "line2": "2 31753  98.6324  16.2873 0158931 184.2978 235.0431 14.18628858959671"}}, "geometry": {"type": "Point", "coordinates": [18.536209830046946, -12.001237965436536]}}, {"type": "Feature", "properties": {"norad_id": 31754, "name": "FENGYUN 1C DEB", "group": "fengyun-1c-debris", "lat": 16.527120335521193, "lon": 131.28966108659256, "alt_km": 736.5458809099191, "timestamp": "2025-12-09T11:33:55.084044+00:00", "meta": {"OBJECT_NAME": "FENGYUN 1C DEB", "OBJECT_ID": "1999-025CFD", "EPOCH": "2025-12-08T14:49:34.851072", "MEAN_MOTION": 14.42216993, "ECCENTRICITY": 0.0049141, "INCLINATION": 99.04, "RA_OF_ASC_NODE": 307.6671, "ARG_OF_PERICENTER": 230.3189, "MEAN_ANOMALY": 129.366, "EPHEMERIS_TYPE": 0, "CLASSIFICATION_TYPE": "U", "NORAD_CAT_ID": 31754, "ELEMENT_SET_NO": 999, "REV_AT_EPOCH": 96930, "BSTAR": 0.0017713, "MEAN_MOTION_DOT": 5.877e-05, "MEAN_MOTION_DDOT": 0}, "tle": {"line1": "1 31754U 99025CFD 25342.61776448  .00005877  00000+0  17713-2 0  9991", "line2": "2 31754  99.0400 307.6671 0049141 230.3189 129.3660 14.42216993969304"}}, "geometry": {"type": "Point", "coordinates": [131.28966108659256, 16.527120335521193]}}, {"type": "Feature", "properties": {"norad_id": 31757, "name": "FENGYUN 1C DEB", "group": "fengyun-1c-debris", "lat": -35.49985243511058, "lon": 179.32264861161673, "alt_km": 955.5935488139439, "timestamp": "2025-12-09T11:33:55.084054+00:00", "meta": {"OBJECT_NAME": "FENGYUN 1C DEB", "OBJECT_ID": "1999-025CFG", "EPOCH": "2025-12-06T19:27:27.186912", "MEAN_MOTION": 14.07911335, "ECCENTRICITY": 0.02180919, "INCLINATION": 98.7682, "RA_OF_ASC_NODE": 3.0467, "ARG_OF_PERICENTER": 100.7376, "MEAN_ANOMALY": 261.8428, "EPHEMERIS_TYPE": 0, "CLASSIFICATION_TYPE": "U", "NORAD_CAT_ID": 31757, "ELEMENT_SET_NO": 999, "REV_AT_EPOCH": 63798, "BSTAR": 0.0002802881, "MEAN_MOTION_DOT": 5.5e-06, "MEAN_MOTION_DDOT": 0}, "tle": {"line1": "1 31757U 99025CFG 25340.81073133  .00000550  00000+0  28029-3 0  9991", "line2": "2 31757  98.7682   3.0467 0218091 100.7376 261.8428 14.07911335637988"}}, "geometry": {"type": "Point", "coordinates": [179.32264861161673, -35.49985243511058]}}, {"type": "Feature", "properties": {"norad_id": 31758, "name": "FENGYUN 1C DEB", "group": "fengyun-1c-debris", "lat": 51.27576174302308, "lon": -17.44618440480551, "alt_km": 591.8093960781807, "timestamp": "2025-12-09T11:33:55.084064+00:00", "meta": {"OBJECT_NAME": "FENGYUN 1C DEB", "OBJECT_ID": "1999-025CFH", "EPOCH": "2025-12-08T07:00:57.261024", "MEAN_MOTION": 14.41853246, "ECCENTRICITY": 0.03185901, "INCLINATION": 98.0601, "RA_OF_ASC_NODE": 351.6072, "ARG_OF_PERICENTER": 103.752, "MEAN_ANOMALY": 259.9342, "EPHEMERIS_TYPE": 0, "CLASSIFICATION_TYPE": "U", "NORAD_CAT_ID": 31758, "ELEMENT_SET_NO": 999, "REV_AT_EPOCH": 94136, "BSTAR": 0.0021852111, "MEAN_MOTION_DOT": 0.00013165, "MEAN_MOTION_DDOT": 0}, "tle": {"line1": "1 31758U 99025CFH 25342.29232941  .00013165  00000+0  21852-2 0  9992", "line2": "2 31758  98.0601 351.6072 0318590 103.7520 259.9342 14.41853246941363"}}, "geometry": {"type": "Point", "coordinates": [-17.44618440480551, 51.27576174302308]}}, {"type": "Feature", "properties": {"norad_id": 31760, "name": "FENGYUN 1C DEB", "group": "fengyun-1c-debris", "lat": -11.07176540438807, "lon": -100.88149829680533, "alt_km": 759.013127223765, "timestamp": "2025-12-09T11:33:55.084074+00:00", "meta": {"OBJECT_NAME": "FENGYUN 1C DEB", "OBJECT_ID": "1999-025CFK", "EPOCH": "2025-12-08T17:52:54.033312", "MEAN_MOTION": 14.30154976, "ECCENTRICITY": 0.00526714, "INCLINATION": 99.2541, "RA_OF_ASC_NODE": 80.1638, "ARG_OF_PERICENTER": 208.6786, "MEAN_ANOMALY": 151.1496, "EPHEMERIS_TYPE": 0, "CLASSIFICATION_TYPE": "U", "NORAD_CAT_ID": 31760, "ELEMENT_SET_NO": 999, "REV_AT_EPOCH": 96075, "BSTAR": 0.0014085109, "MEAN_MOTION_DOT": 3.652e-05, "MEAN_MOTION_DDOT": 0}, "tle": {"line1": "1 31760U 99025CFK 25342.74506983  .00003652  00000+0  14085-2 0  9995", "line2": "2 31760  99.2541  80.1638 0052671 208.6786 151.1496 14.30154976960757"}}, "geometry": {"type": "Point", "coordinates": [-100.88149829680533, -11.07176540438807]}}, {"type": "Feature", "properties": {"norad_id": 31761, "name": "FENGYUN 1C DEB", "group": "fengyun-1c-debris", "lat": 0.6095631354636913, "lon": -152.5826364121672, "alt_km": 857.4032766909249, "timestamp": "2025-12-09T11:33:55.084085+00:00", "meta": {"OBJECT_NAME": "FENGYUN 1C DEB", "OBJECT_ID": "1999-025CFL", "EPOCH": "2025-12-08T09:53:42.751104", "MEAN_MOTION": 14.03332637, "ECCENTRICITY": 0.04729399, "INCLINATION": 98.6332, "RA_OF_ASC_NODE": 206.4904, "ARG_OF_PERICENTER": 275.6547, "MEAN_ANOMALY": 79.089, "EPHEMERIS_TYPE": 0, "CLASSIFICATION_TYPE": "U", "NORAD_CAT_ID": 31761, "ELEMENT_SET_NO": 999, "REV_AT_EPOCH": 58050, "BSTAR": 0.0027547659, "MEAN_MOTION_DOT": 0.00011735, "MEAN_MOTION_DDOT": 0}, "tle": {"line1": "1 31761U 99025CFL 25342.41230036  .00011735  00000+0  27548-2 0  9992", "line2": "2 31761  98.6332 206.4904 0472939 275.6547  79.0890 14.03332637580509"}}, "geometry": {"type": "Point", "coordinates": [-152.5826364121672, 0.6095631354636913]}}, {"type": "Feature", "properties": {"norad_id": 31763, "name": "FENGYUN 1C DEB", "group": "fengyun-1c-debris", "lat": -73.26937284328518, "lon": 122.25027636019968, "alt_km": 1438.7673502271755, "timestamp": "2025-12-09T11:33:55.084095+00:00", "meta": {"OBJECT_NAME": "FENGYUN 1C DEB", "OBJECT_ID": "1999-025CFN", "EPOCH": "2025-12-08T05:51:53.611200", "MEAN_MOTION": 13.50313879, "ECCENTRICITY": 0.05471877, "INCLINATION": 98.5212, "RA_OF_ASC_NODE": 91.2677, "ARG_OF_PERICENTER": 81.2412, "MEAN_ANOMALY": 313.6008, "EPHEMERIS_TYPE": 0, "CLASSIFICATION_TYPE": "U", "NORAD_CAT_ID": 31763, "ELEMENT_SET_NO": 999, "REV_AT_EPOCH": 90945, "BSTAR": 0.0011696232, "MEAN_MOTION_DOT": 1.885e-05, "MEAN_MOTION_DDOT": 0}, "tle": {"line1": "1 31763U 99025CFN 25342.24437050  .00001885  00000+0  11696-2 0  9992", "line2": "2 31763  98.5212  91.2677 0547187  81.2412 313.6008 13.50313879909459"}}, "geometry": {"type": "Point", "coordinates": [122.25027636019968, -73.26937284328518]}}, {"type": "Feature", "properties": {"norad_id": 31766, "name": "FENGYUN 1C DEB", "group": "fengyun-1c-debris", "lat": -9.558236229708816, "lon": -17.104849944705382, "alt_km": 845.050921394949, "timestamp": "2025-12-09T11:33:55.084105+00:00", "meta": {"OBJECT_NAME": "FENGYUN 1C DEB", "OBJECT_ID": "1999-025CFR", "EPOCH": "2025-12-05T17:02:42.241632", "MEAN_MOTION": 14.0527359, "ECCENTRICITY": 0.00736647, "INCLINATION": 98.8158, "RA_OF_ASC_NODE": 337.7312, "ARG_OF_PERICENTER": 310.9952, "MEAN_ANOMALY": 48.486, "EPHEMERIS_TYPE": 0, "CLASSIFICATION_TYPE": "U", "NORAD_CAT_ID": 31766, "ELEMENT_SET_NO": 999, "REV_AT_EPOCH": 63987, "BSTAR": 0.00041011226, "MEAN_MOTION_DOT": 6.36e-06, "MEAN_MOTION_DDOT": 0}, "tle": {"line1": "1 31766U 99025CFR 25339.71021113  .00000636  00000+0  41011-3 0  9990", "line2": "2 31766  98.8158 337.7312 0073664 310.9952  48.4860 14.05273590639874"}}, "geometry": {"type": "Point", "coordinates": [-17.104849944705382, -9.558236229708816]}}, {"type": "Feature", "properties": {"norad_id": 31767, "name": "FENGYUN 1C DEB", "group": "fengyun-1c-debris", "lat": -33.57684994871251, "lon": 19.181728669987987, "alt_km": 894.4941487007554, "timestamp": "2025-12-09T11:33:55.084115+00:00", "meta": {"OBJECT_NAME": "FENGYUN 1C DEB", "OBJECT_ID": "1999-025CFS", "EPOCH": "2025-12-09T01:36:35.443296", "MEAN_MOTION": 14.04951648, "ECCENTRICITY": 0.0041929, "INCLINATION": 98.8223, "RA_OF_ASC_NODE": 12.8611, "ARG_OF_PERICENTER": 80.0542, "MEAN_ANOMALY": 309.5788, "EPHEMERIS_TYPE": 0, "CLASSIFICATION_TYPE": "U", "NORAD_CAT_ID": 31767, "ELEMENT_SET_NO": 999, "REV_AT_EPOCH": 94774, "BSTAR": 0.00012139, "MEAN_MOTION_DOT": 1.54e-06, "MEAN_MOTION_DDOT": 0}, "tle": {"line1": "1 31767U 99025CFS 25343.06707689  .00000154  00000+0  12139-3 0  9997", "line2": "2 31767  98.8223  12.8611 0041929  80.0542 309.5788 14.04951648947744"}}, "geometry": {"type": "Point", "coordinates": [19.181728669987987, -33.57684994871251]}}, {"type": "Feature", "properties": {"norad_id": 31768, "name": "FENGYUN 1C DEB", "group": "fengyun-1c-debris", "lat": -34.93863372440968, "lon": 62.36010126235986, "alt_km": 631.8529518842324, "timestamp": "2025-12-09T11:33:55.084125+00:00", "meta": {"OBJECT_NAME": "FENGYUN 1C DEB", "OBJECT_ID": "1999-025CFT", "EPOCH": "2025-12-07T00:05:23.203392", "MEAN_MOTION": 14.75847078, "ECCENTRICITY": 0.00263444, "INCLINATION": 99.0428, "RA_OF_ASC_NODE": 53.2026, "ARG_OF_PERICENTER": 359.844, "MEAN_ANOMALY": 125.5614, "EPHEMERIS_TYPE": 0, "CLASSIFICATION_TYPE": "U", "NORAD_CAT_ID": 31768, "ELEMENT_SET_NO": 999, "REV_AT_EPOCH": 96788, "BSTAR": 0.0039918663, "MEAN_MOTION_DOT": 0.00027585, "MEAN_MOTION_DDOT": 0}, "tle": {"line1": "1 31768U 99025CFT 25341.00374078  .00027585  00000+0  39919-2 0  9993", "line2": "2 31768  99.0428  53.2026 0026344 359.8440 125.5614 14.75847078967882"}}, "geometry": {"type": "Point", "coordinates": [62.36010126235986, -34.93863372440968]}}]}